325P/Yang-Gao,e,16.8469,256.8590,344.9310,3.546487,0.1475729,0.58879876,135.4123,09/29.0/2024,2000,g 14.0,4.0
# From MPEC 2024-LE0
326P/Hill,e,2.4724,99.7629,278.4999,4.072724,0.1199159,0.32041775,32.8821,09/29.0/2024,2000,g 13.5,4.0
# From MPEC 2024-M41
327P/VanNess,e,36.2410,173.9945,185.0427,3.562640,0.1465703,0.56276944,111.0750,09/29.0/2024,2000,g 16.0,4.0
# From MPEC 2024-RQ6
328P/LONEOS-Tucker,e,17.6730,341.6069,30.6626,4.189451,0.1149393,0.55282818,7.2462,09/29.0/2024,2000,g 14.5,4.0
# From MPC101101
329P/LINEAR-Catalina,e,21.7178,87.6871,343.5768,5.183975,0.0835045,0.67886412,268.8575,09/29.0/2024,2000,g 13.5,4.0
# From MPEC 2023-J29
330P/Catalina,e,15.7344,293.0809,188.8209,6.616775,0.0579075,0.55018740,171.0078,09/29.0/2024,2000,g 12.0,4.0
# From MPEC 2024-Q20
331P/Gibbs,e,9.7401,216.7485,185.2546,3.003749,0.1893253,0.04151808,274.8114,09/29.0/2024,2000,g 12.0,4.0
# From MPEC 2016-K18
332P/Ikeya-Murakami,e,9.3837,3.7564,152.2889,3.086569,0.1817566,0.48959146,206.7920,09/29.0/2024,2000,g 18.0,4.0
# From MPEC 2016-K18
332P-A/Ikeya-Murakami,e,9.3841,152.3106,3.7351,3.086559,0.1817574,0.48959716,206.7911,09/29.0/2024,2000,g  9.0,4.0
# From MPEC 2016-EI8
332P-B/Ikeya-Murakami,e,9.3805,3.8028,152.3711,3.082329,0.1821317,0.48970701,359.9699,03/17.0/2016,2000,g 19.0,4.0
# From MPEC 2016-K18
332P-C/Ikeya-Murakami,e,9.3832,152.3019,3.7356,3.086526,0.1817604,0.48960272,206.8087,09/29.0/2024,2000,g 16.5,4.0
# From MPEC 2016-ED0
332P-D/Ikeya-Murakami,e,9.3761,3.7923,152.4393,3.081138,0.1822373,0.48977814,359.9486,03/17.0/2016,2000,g 19.0,4.0
# From MPEC 2016-ED0
332P-E/Ikeya-Murakami,e,9.3774,3.8228,152.2825,3.079877,0.1823493,0.48922008,359.9889,03/17.0/2016,2000,g 21.0,4.0
# From MPEC 2016-ED0
332P-F/Ikeya-Murakami,e,9.5293,3.4757,152.8203,3.163214,0.1751908,0.49918860,359.8501,03/17.0/2016,2000,g 21.0,4.0
# From MPEC 2016-ED0
332P-G/Ikeya-Murakami,e,9.2523,3.6955,154.4000,3.050519,0.1849880,0.49200362,359.9006,03/19.0/2016,2000,g 19.0,4.0
# From MPC100285
332P-H/Ikeya-Murakami,e,9.3837,152.3025,3.7353,3.086707,0.1817444,0.48963845,206.7252,09/29.0/2024,2000,g 19.0,4.0
# From MPEC 2016-ED0
332P-I/Ikeya-Murakami,e,9.3791,3.8048,152.3297,3.081767,0.1821815,0.48955490,359.9360,03/17.0/2016,2000,g 20.5,2.0
# From MPEC 2016-EI8
332P-J/Ikeya-Murakami,e,9.4296,3.6729,152.7712,3.115165,0.1792596,0.49429435,359.8613,03/17.0/2016,2000,g 20.5,2.0
# From MPEC 2024-NE4
333P/LINEAR,e,132.0216,115.7057,26.0183,4.220491,0.1136736,0.73630106,353.0319,09/29.0/2024,2000,g 15.0,4.0
# From MPEC 2023-J29
334P/NEAT,e,20.3705,90.4370,90.0393,6.827698,0.0552450,0.35139981,147.7631,09/29.0/2024,2000,g 10.5,4.0
# From MPEC 2023-M14
335P/Gibbs,e,7.2952,330.8060,162.3046,3.577534,0.1456560,0.54664071,113.4347,09/29.0/2024,2000,g 16.8,4.0
# From MPC105244
336P/McNaught,e,17.8337,298.2033,308.6234,5.037759,0.0871662,0.44443442,244.4130,09/29.0/2024,2000,g 13.5,4.0
# From MPEC 2024-A43
337P/WISE,e,15.8566,104.0404,163.4327,3.299664,0.1644370,0.49929450,134.3638,09/29.0/2024,2000,g 17.0,4.0
# From MPEC 2024-RQ6
338P/McNaught,e,25.3846,9.7924,4.5996,3.893831,0.1282739,0.41242445,7.2729,09/29.0/2024,2000,g 12.0,4.0
# From MPC101101
339P/Gibbs,e,5.7333,27.4711,172.6845,3.699424,0.1385169,0.63565441,54.7249,09/29.0/2024,2000,g 17.0,4.0
# From MPC133426
340P/Boattini,e,2.0787,291.6615,36.0646,4.248262,0.1125608,0.28022050,322.3780,09/29.0/2024,2000,g 14.3,4.0
# From MPEC 2023-J29
341P/Gibbs,e,3.7964,29.9587,312.3468,4.286799,0.1110464,0.41530854,337.1613,09/29.0/2024,2000,g 12.5,4.0
# From MPC101101
342P/SOHO,e,11.6951,73.3231,27.6335,3.041055,0.1858522,0.98295097,0.0000,02/07.5728/2027,2000,g  9.0,4.0
# From MPEC 2024-PC5
343P/NEAT-LONEOS,e,5.5973,257.0564,137.5975,5.457527,0.0773055,0.58512503,216.0779,09/29.0/2024,2000,g 14.0,4.0
# From MPEC 2023-J29
344P/Read,e,3.4992,273.1007,140.5831,4.856653,0.0920870,0.42379853,265.2811,09/29.0/2024,2000,g 13.0,4.0
# From MPEC 2024-RQ6
345P/LINEAR,e,2.7280,154.5107,196.6789,4.031378,0.1217654,0.22126094,3.5781,09/29.0/2024,2000,g 12.0,4.0
# From MPEC 2022-K19
346P/Catalina,e,22.2186,102.4569,336.0362,4.469709,0.1043002,0.50390172,289.9958,09/29.0/2024,2000,g 14.0,4.0
# From MPEC 2024-RQ6
347P/PANSTARRS,e,11.7656,260.9905,98.2317,3.603471,0.1440863,0.38682896,63.0312,09/29.0/2024,2000,g 15.0,4.0
# From MPEC 2022-ED3
348P/PANSTARRS,e,17.7393,312.9220,135.7362,3.151837,0.1761401,0.30743522,168.9000,09/29.0/2024,2000,g 14.0,4.0
# From MPEC 2024-LE0
349P/Lemmon,e,5.4885,331.7456,255.7818,3.578538,0.1455947,0.29857917,18.1898,09/29.0/2024,2000,g 14.0,4.0
# From MPC111775
350P/McNaught,e,7.3638,65.2927,140.0267,4.081104,0.1195467,0.09453931,296.1236,09/29.0/2024,2000,g 14.0,4.0
# From MPC105244
351P/Wiegert-PANSTARRS,e,12.7747,352.6755,283.3069,4.440746,0.1053223,0.29475099,341.2151,09/29.0/2024,2000,g 12.5,4.0
# From MPEC 2023-J29
352P/Skiff,e,21.0102,28.0230,309.4008,6.653532,0.0574283,0.61651305,152.6152,09/29.0/2024,2000,g 13.2,4.0
# From MPEC 2020-AA5
353P/McNaught,e,28.4171,121.5196,230.4929,4.170705,0.1157151,0.46987604,285.8960,09/29.0/2024,2000,g 14.5,4.0
# From MPEC 2024-EF7
354P/LINEAR,e,5.2507,320.0682,132.8528,2.290036,0.2844072,0.12449106,99.8133,09/29.0/2024,2000,g 15.5,4.0
# From MPEC 2023-CD7
355P/LINEAR-NEAT,e,11.0463,51.4316,336.2987,3.469242,0.1525289,0.50811024,27.5545,09/29.0/2024,2000,g 15.5,2.0
# From MPEC 2022-F14
356P/WISE,e,9.6406,160.8024,226.1696,4.153727,0.1164252,0.35602299,287.6840,09/29.0/2024,2000,g 14.0,4.0
# From MPC114609
357P/Hill,e,6.3139,44.5776,1.4708,4.455682,0.1047931,0.43612529,242.0741,09/29.0/2024,2000,g 15.5,4.0
# From MPEC 2024-EF7
358P/PANSTARRS,e,11.0666,85.6664,299.4591,3.147458,0.1765079,0.23957972,57.1959,09/29.0/2024,2000,g 18.0,4.0
# From MPC110086
359P/LONEOS,e,10.2627,149.7623,200.2977,4.641638,0.0985592,0.32339806,255.6021,09/29.0/2024,2000,g 13.5,4.0
# From MPEC 2024-RQ6
360P/WISE,e,24.1097,2.1775,354.2823,3.696884,0.1386597,0.49912365,359.3397,09/29.0/2024,2000,g 19.5,6.0
# From MPEC 2023-CD7
361P/Spacewatch,e,13.9007,203.2476,219.0843,4.933314,0.0899489,0.43959501,204.7476,09/29.0/2024,2000,g 12.0,4.0
# From MPC114609
363P/Lemmon,e,5.3898,146.6334,340.8743,3.574881,0.1458182,0.51862584,353.4096,09/29.0/2024,2000,g 17.5,4.0
# From MPEC 2024-M41
364P/PANSTARRS,e,12.0563,46.1018,212.3725,2.893261,0.2002731,0.72080696,100.9002,09/29.0/2024,2000,g 17.0,2.0
# From MPC111775
365P/PANSTARRS,e,9.8500,86.6568,67.4217,3.156414,0.1757572,0.58148276,62.4970,09/29.0/2024,2000,g 17.0,4.0
# From MPC114610
366P/Spacewatch,e,8.8570,70.7229,153.0089,3.499253,0.1505709,0.34844504,341.3394,09/29.0/2024,2000,g 15.0,4.0
# From MPC112395
367P/Catalina,e,8.4596,58.6613,172.7054,3.510892,0.1498228,0.27997138,344.3275,09/29.0/2024,2000,g 17.5,2.0
# From MPC114610
368P/NEAT,e,15.4823,257.8583,118.9747,5.533484,0.0757192,0.62611332,166.9696,09/29.0/2024,2000,g 14.0,4.0
# From MPC114610
369P/Hill,e,10.3218,47.2948,13.2085,4.379366,0.1075443,0.55594313,233.5626,09/29.0/2024,2000,g 15.0,4.0
# From MPEC 2021-F20
370P/NEAT,e,19.4229,55.0822,356.7602,6.438306,0.0603319,0.61544060,138.7865,09/29.0/2024,2000,g 13.0,4.0
# From MPC114610
371P/LINEAR-Skiff,e,17.3852,67.2829,308.5695,4.180474,0.1153097,0.47680761,251.7569,09/29.0/2024,2000,g 16.0,4.0
# From MPEC 2020-K19
372P/McNaught,e,9.5063,27.5519,326.0130,4.511515,0.1028538,0.15157187,222.8951,09/29.0/2024,2000,g 13.5,4.0
# From MPEC 2021-F20
373P/Rinner,e,13.7702,231.9414,221.0835,3.798123,0.1331529,0.39371246,266.0073,09/29.0/2024,2000,g 14.5,4.0
# From MPC114610
374P/Larson,e,10.7634,7.8915,51.5357,4.971061,0.0889263,0.46376362,185.4045,09/29.0/2024,2000,g 14.0,4.0
# From MPEC 2021-F20
375P/Hill,e,17.3688,359.8717,119.4051,5.546295,0.0754570,0.65997200,159.0132,09/29.0/2024,2000,g 16.0,4.0
# From MPEC 2024-RQ6
376P/LONEOS,e,1.1662,312.8515,285.4039,5.756715,0.0713579,0.51379837,131.4106,09/29.0/2024,2000,g 12.5,4.0
# From MPEC 2022-N37
377P/Scotti,e,9.0259,226.0065,354.8724,6.696499,0.0568764,0.25115719,87.7382,09/29.0/2024,2000,g  9.5,4.0
# From MPEC 2024-D33
378P/McNaught,e,19.1517,93.8033,193.3687,6.290306,0.0624736,0.46452117,90.6168,09/29.0/2024,2000,g 12.0,4.0
# From MPC115889
379P/Spacewatch,e,12.4380,30.4899,184.4913,3.486780,0.1513795,0.35011839,282.5761,09/29.0/2024,2000,g 15.0,4.0
# From MPEC 2023-C45
380P/PANSTARRS,e,8.0220,127.9312,87.8973,4.431962,0.1056355,0.33598149,211.0822,09/29.0/2024,2000,g 12.5,4.0
# From MPEC 2021-J28
381P/LINEAR-Spacewatch,e,28.3530,173.3022,173.8525,7.144190,0.0516148,0.68094590,94.4509,09/29.0/2024,2000,g 17.5,2.0
# From MPEC 2024-MB8
382P/Larson,e,8.2612,171.3859,162.1851,5.922165,0.0683885,0.26912908,71.9596,09/29.0/2024,2000,g  8.0,4.0
# From MPEC 2022-OB6
383P/Christensen,e,12.3196,207.8535,133.7465,3.548336,0.1474575,0.59866600,265.4064,09/29.0/2024,2000,g 18.0,4.0
# From MPEC 2024-RQ6
384P/Kowalski,e,7.2832,354.1992,37.7132,2.898420,0.1997386,0.61631383,1.9687,09/29.0/2024,2000,g 19.5,4.0
# From MPEC 2021-F20
385P/Hill,e,16.8256,357.0560,44.4263,4.288840,0.1109671,0.40205898,204.0581,09/29.0/2024,2000,g 13.0,4.0
# From MPEC 2021-L04
386P/PANSTARRS,e,15.2430,134.9160,353.0845,4.049948,0.1209289,0.41723339,181.5202,09/29.0/2024,2000,g 14.5,4.0
# From MPEC 2021-J28
387P/Boattini,e,8.9373,259.2403,162.8378,4.797196,0.0938043,0.73709758,173.3051,09/29.0/2024,2000,g 15.0,4.0
# From MPEC 2021-S45
388P/Gibbs,e,23.8865,37.0254,42.3354,5.240591,0.0821549,0.61934742,155.4303,09/29.0/2024,2000,g 13.0,4.0
# From MPEC 2022-OB6
389P/Siding Spring,e,160.0841,218.8735,249.3653,5.631787,0.0737454,0.70531955,127.8732,09/29.0/2024,2000,g 16.0,4.0
# From MPEC 2024-EF7
390P/Gibbs,e,18.5324,152.2264,232.5123,5.816026,0.0702691,0.70704124,116.0295,09/29.0/2024,2000,g 12.0,4.0
# From MPEC 2021-F20
391P/Kowalski,e,21.2589,124.7828,187.1123,4.689499,0.0970542,0.11860621,231.7497,09/29.0/2024,2000,g  8.0,4.0
# From MPEC 2021-J28
392P/LINEAR,e,4.9305,24.8343,71.9157,6.141278,0.0647614,0.68386247,106.2482,09/29.0/2024,2000,g 14.5,4.0
# From MPEC 2023-T65
